STARLINK-1960
1 17561C 21009P   21326.10467161  .00008241  00000-0  55209-3 0  3268
2 17561  53.0550 223.2787 0006205  55.8121  47.0274 15.06380546    12
